<?xml version="1.0" encoding="UTF-8"?>
<osm version="0.6" generator="hand">
<bounds minlat="33.5" minlon="46.2" maxlat="33.8" maxlon="46.6"/>
<node id="1" version="1" timestamp="2026-01-01T00:00:00Z" lat="33.6374" lon="46.4227"><tag k="place" v="city"/><tag k="name" v="ایلام"/><tag k="name:en" v="Ilam"/></node>
<node id="2" version="1" timestamp="2026-01-01T00:00:00Z" lat="33.642" lon="46.43"><tag k="place" v="neighbourhood"/><tag k="name" v="کوی نمونه"/></node>
<node id="3" version="1" timestamp="2026-01-01T00:00:00Z" lat="33.7" lon="46.3"><tag k="place" v="village"/><tag k="name" v="روستای آزمون"/></node>
<node id="4" version="1" timestamp="2026-01-01T00:00:00Z" lat="33.63" lon="46.41"><tag k="place" v="village"/><tag k="name:fa" v="بان آزمون"/><tag k="name" v="Ban Azmun"/></node>
<node id="10" version="1" timestamp="2026-01-01T00:00:00Z" lat="33.638" lon="46.415"></node>
<node id="11" version="1" timestamp="2026-01-01T00:00:00Z" lat="33.638" lon="46.42"></node>
<node id="12" version="1" timestamp="2026-01-01T00:00:00Z" lat="33.638" lon="46.425"></node>
<node id="13" version="1" timestamp="2026-01-01T00:00:00Z" lat="33.638" lon="46.43"></node>
<node id="20" version="1" timestamp="2026-01-01T00:00:00Z" lat="33.635" lon="46.435"></node>
<node id="21" version="1" timestamp="2026-01-01T00:00:00Z" lat="33.64" lon="46.435"></node>
<node id="22" version="1" timestamp="2026-01-01T00:00:00Z" lat="33.645" lon="46.435"></node>
<node id="30" version="1" timestamp="2026-01-01T00:00:00Z" lat="33.639" lon="46.42"></node>
<node id="31" version="1" timestamp="2026-01-01T00:00:00Z" lat="33.6395" lon="46.421"></node>
<node id="40" version="1" timestamp="2026-01-01T00:00:00Z" lat="33.5" lon="46.2"></node>
<node id="41" version="1" timestamp="2026-01-01T00:00:00Z" lat="33.5" lon="46.6"></node>
<node id="42" version="1" timestamp="2026-01-01T00:00:00Z" lat="33.8" lon="46.6"></node>
<node id="43" version="1" timestamp="2026-01-01T00:00:00Z" lat="33.8" lon="46.2"></node>
<node id="50" version="1" timestamp="2026-01-01T00:00:00Z" lat="33.6" lon="46.38"></node>
<node id="51" version="1" timestamp="2026-01-01T00:00:00Z" lat="33.6" lon="46.46"></node>
<node id="52" version="1" timestamp="2026-01-01T00:00:00Z" lat="33.66" lon="46.46"></node>
<node id="53" version="1" timestamp="2026-01-01T00:00:00Z" lat="33.66" lon="46.38"></node>
<way id="100" version="1" timestamp="2026-01-01T00:00:00Z"><nd ref="10"/><nd ref="11"/><nd ref="12"/><nd ref="13"/><tag k="highway" v="primary"/><tag k="name" v="بلوار آزمون"/></way>
<way id="101" version="1" timestamp="2026-01-01T00:00:00Z"><nd ref="20"/><nd ref="21"/><nd ref="22"/><tag k="highway" v="residential"/><tag k="name" v="خیابان نمونه"/></way>
<way id="102" version="1" timestamp="2026-01-01T00:00:00Z"><nd ref="30"/><nd ref="31"/><tag k="highway" v="footway"/><tag k="name" v="پیاده‌رو"/></way>
<way id="103" version="1" timestamp="2026-01-01T00:00:00Z"><nd ref="12"/><nd ref="22"/><tag k="highway" v="service"/></way>
<way id="200" version="1" timestamp="2026-01-01T00:00:00Z"><nd ref="40"/><nd ref="41"/><nd ref="42"/></way>
<way id="201" version="1" timestamp="2026-01-01T00:00:00Z"><nd ref="42"/><nd ref="43"/><nd ref="40"/></way>
<way id="202" version="1" timestamp="2026-01-01T00:00:00Z"><nd ref="50"/><nd ref="51"/><nd ref="52"/><nd ref="53"/><nd ref="50"/><tag k="boundary" v="administrative"/><tag k="admin_level" v="6"/><tag k="name" v="بخش مرکزی"/></way>
<relation id="300" version="1" timestamp="2026-01-01T00:00:00Z"><member type="way" ref="200" role="outer"/><member type="way" ref="201" role="outer"/><tag k="type" v="boundary"/><tag k="boundary" v="administrative"/><tag k="admin_level" v="5"/><tag k="name" v="ایلام"/></relation>
</osm>
